CCSDS_OMM_VERS = 2.0
CREATION_DATE  = 
ORIGINATOR     = 

OBJECT_NAME    = COSMOS 1933
OBJECT_ID      = 1988-020A
CENTER_NAME    = EARTH
REF_FRAME      = TEME
TIME_SYSTEM    = UTC
MEAN_ELEMENT_THEORY = SGP/SGP4

EPOCH          = 2026-03-05T23:12:08.875296
MEAN_MOTION    = 15.17941453
ECCENTRICITY   = .00035345
INCLINATION    = 82.5098
RA_OF_ASC_NODE = 254.5963
ARG_OF_PERICENTER = 196.1307
MEAN_ANOMALY   = 163.9815

EPHEMERIS_TYPE = 0
CLASSIFICATION_TYPE = U
NORAD_CAT_ID   = 18958
ELEMENT_SET_NO = 999
REV_AT_EPOCH   = 4966
BSTAR          = .21388781E-3
MEAN_MOTION_DOT = .437E-4
MEAN_MOTION_DDOT = 0

CCSDS_OMM_VERS = 2.0
CREATION_DATE  = 
ORIGINATOR     = 

OBJECT_NAME    = SL-3 R/B
OBJECT_ID      = 1988-032B
CENTER_NAME    = EARTH
REF_FRAME      = TEME
TIME_SYSTEM    = UTC
MEAN_ELEMENT_THEORY = SGP/SGP4

EPOCH          = 2026-03-05T21:56:12.625728
MEAN_MOTION    = 15.19854131
ECCENTRICITY   = .00242221
INCLINATION    = 97.5188
RA_OF_ASC_NODE = 48.1781
ARG_OF_PERICENTER = 245.6454
MEAN_ANOMALY   = 114.2252

EPHEMERIS_TYPE = 0
CLASSIFICATION_TYPE = U
NORAD_CAT_ID   = 19046
ELEMENT_SET_NO = 999
REV_AT_EPOCH   = 5153
BSTAR          = .28804662E-3
MEAN_MOTION_DOT = .6155E-4
MEAN_MOTION_DDOT = 0

CCSDS_OMM_VERS = 2.0
CREATION_DATE  = 
ORIGINATOR     = 

OBJECT_NAME    = SL-16 R/B
OBJECT_ID      = 1988-039B
CENTER_NAME    = EARTH
REF_FRAME      = TEME
TIME_SYSTEM    = UTC
MEAN_ELEMENT_THEORY = SGP/SGP4

EPOCH          = 2026-03-05T11:17:48.077376
MEAN_MOTION    = 14.19615722
ECCENTRICITY   = .0022514
INCLINATION    = 71.0130
RA_OF_ASC_NODE = 77.4694
ARG_OF_PERICENTER = 340.5401
MEAN_ANOMALY   = 19.4862

EPHEMERIS_TYPE = 0
CLASSIFICATION_TYPE = U
NORAD_CAT_ID   = 19120
ELEMENT_SET_NO = 999
REV_AT_EPOCH   = 95778
BSTAR          = -.12085E-4
MEAN_MOTION_DOT = -.74E-6
MEAN_MOTION_DDOT = 0

CCSDS_OMM_VERS = 2.0
CREATION_DATE  = 
ORIGINATOR     = 

OBJECT_NAME    = COSMOS 1953
OBJECT_ID      = 1988-050A
CENTER_NAME    = EARTH
REF_FRAME      = TEME
TIME_SYSTEM    = UTC
MEAN_ELEMENT_THEORY = SGP/SGP4

EPOCH          = 2026-03-05T19:53:09.625632
MEAN_MOTION    = 15.28442834
ECCENTRICITY   = .00123411
INCLINATION    = 82.5106
RA_OF_ASC_NODE = 162.1287
ARG_OF_PERICENTER = 134.8339
MEAN_ANOMALY   = 225.3906

EPHEMERIS_TYPE = 0
CLASSIFICATION_TYPE = U
NORAD_CAT_ID   = 19210
ELEMENT_SET_NO = 999
REV_AT_EPOCH   = 3719
BSTAR          = .38165118E-3
MEAN_MOTION_DOT = .10622E-3
MEAN_MOTION_DDOT = 0

CCSDS_OMM_VERS = 2.0
CREATION_DATE  = 
ORIGINATOR     = 

OBJECT_NAME    = SL-8 R/B
OBJECT_ID      = 1988-053B
CENTER_NAME    = EARTH
REF_FRAME      = TEME
TIME_SYSTEM    = UTC
MEAN_ELEMENT_THEORY = SGP/SGP4

EPOCH          = 2026-03-05T15:13:13.591776
MEAN_MOTION    = 14.38913126
ECCENTRICITY   = .0021348
INCLINATION    = 74.0466
RA_OF_ASC_NODE = 119.9422
ARG_OF_PERICENTER = 299.8199
MEAN_ANOMALY   = 173.7495

EPHEMERIS_TYPE = 0
CLASSIFICATION_TYPE = U
NORAD_CAT_ID   = 19257
ELEMENT_SET_NO = 999
REV_AT_EPOCH   = 97601
BSTAR          = .12839E-3
MEAN_MOTION_DOT = .37E-5
MEAN_MOTION_DDOT = 0

CCSDS_OMM_VERS = 2.0
CREATION_DATE  = 
ORIGINATOR     = 

OBJECT_NAME    = COSMOS 1975
OBJECT_ID      = 1988-093A
CENTER_NAME    = EARTH
REF_FRAME      = TEME
TIME_SYSTEM    = UTC
MEAN_ELEMENT_THEORY = SGP/SGP4

EPOCH          = 2026-03-05T14:22:52.435200
MEAN_MOTION    = 15.27998410
ECCENTRICITY   = .0011841
INCLINATION    = 82.5192
RA_OF_ASC_NODE = 121.7917
ARG_OF_PERICENTER = 177.2898
MEAN_ANOMALY   = 182.8407

EPHEMERIS_TYPE = 0
CLASSIFICATION_TYPE = U
NORAD_CAT_ID   = 19573
ELEMENT_SET_NO = 999
REV_AT_EPOCH   = 1878
BSTAR          = .32709E-3
MEAN_MOTION_DOT = .8983E-4
MEAN_MOTION_DDOT = 0

CCSDS_OMM_VERS = 2.0
CREATION_DATE  = 
ORIGINATOR     = 

OBJECT_NAME    = SL-14 R/B
OBJECT_ID      = 1988-093B
CENTER_NAME    = EARTH
REF_FRAME      = TEME
TIME_SYSTEM    = UTC
MEAN_ELEMENT_THEORY = SGP/SGP4

EPOCH          = 2026-03-05T22:57:16.509312
MEAN_MOTION    = 14.85650663
ECCENTRICITY   = .00219923
INCLINATION    = 82.5298
RA_OF_ASC_NODE = 45.5484
ARG_OF_PERICENTER = 53.2053
MEAN_ANOMALY   = 0.1988

EPHEMERIS_TYPE = 0
CLASSIFICATION_TYPE = U
NORAD_CAT_ID   = 19574
ELEMENT_SET_NO = 999
REV_AT_EPOCH   = 46
BSTAR          = .79947607E-4
MEAN_MOTION_DOT = .72E-5
MEAN_MOTION_DDOT = 0

CCSDS_OMM_VERS = 2.0
CREATION_DATE  = 
ORIGINATOR     = 

OBJECT_NAME    = SL-16 R/B
OBJECT_ID      = 1988-102B
CENTER_NAME    = EARTH
REF_FRAME      = TEME
TIME_SYSTEM    = UTC
MEAN_ELEMENT_THEORY = SGP/SGP4

EPOCH          = 2026-03-05T16:00:14.133600
MEAN_MOTION    = 14.16149885
ECCENTRICITY   = .00136968
INCLINATION    = 71.0000
RA_OF_ASC_NODE = 159.9612
ARG_OF_PERICENTER = 7.8268
MEAN_ANOMALY   = 352.3066

EPHEMERIS_TYPE = 0
CLASSIFICATION_TYPE = U
NORAD_CAT_ID   = 19650
ELEMENT_SET_NO = 999
REV_AT_EPOCH   = 92632
BSTAR          = .96024972E-4
MEAN_MOTION_DOT = .142E-5
MEAN_MOTION_DDOT = 0

CCSDS_OMM_VERS = 2.0
CREATION_DATE  = 
ORIGINATOR     = 

OBJECT_NAME    = INTERCOSMOS 24
OBJECT_ID      = 1989-080A
CENTER_NAME    = EARTH
REF_FRAME      = TEME
TIME_SYSTEM    = UTC
MEAN_ELEMENT_THEORY = SGP/SGP4

EPOCH          = 2026-03-05T14:13:38.529984
MEAN_MOTION    = 12.59550817
ECCENTRICITY   = .118677
INCLINATION    = 82.6031
RA_OF_ASC_NODE = 107.0723
ARG_OF_PERICENTER = 302.3389
MEAN_ANOMALY   = 46.8135

EPHEMERIS_TYPE = 0
CLASSIFICATION_TYPE = U
NORAD_CAT_ID   = 20261
ELEMENT_SET_NO = 999
REV_AT_EPOCH   = 66628
BSTAR          = .28585E-3
MEAN_MOTION_DOT = .961E-5
MEAN_MOTION_DDOT = 0

CCSDS_OMM_VERS = 2.0
CREATION_DATE  = 
ORIGINATOR     = 

OBJECT_NAME    = SL-14 R/B
OBJECT_ID      = 1989-080C
CENTER_NAME    = EARTH
REF_FRAME      = TEME
TIME_SYSTEM    = UTC
MEAN_ELEMENT_THEORY = SGP/SGP4

EPOCH          = 2026-03-05T17:09:24.590016
MEAN_MOTION    = 12.50488178
ECCENTRICITY   = .12304187
INCLINATION    = 82.5972
RA_OF_ASC_NODE = 175.7370
ARG_OF_PERICENTER = 193.8321
MEAN_ANOMALY   = 162.6001

EPHEMERIS_TYPE = 0
CLASSIFICATION_TYPE = U
NORAD_CAT_ID   = 20262
ELEMENT_SET_NO = 999
REV_AT_EPOCH   = 65965
BSTAR          = .27084394E-3
MEAN_MOTION_DOT = .909E-5
MEAN_MOTION_DDOT = 0

CCSDS_OMM_VERS = 2.0
CREATION_DATE  = 
ORIGINATOR     = 

OBJECT_NAME    = DELTA 1 R/B
OBJECT_ID      = 1989-089B
CENTER_NAME    = EARTH
REF_FRAME      = TEME
TIME_SYSTEM    = UTC
MEAN_ELEMENT_THEORY = SGP/SGP4

EPOCH          = 2026-03-05T13:13:47.217216
MEAN_MOTION    = 14.50659365
ECCENTRICITY   = .007021
INCLINATION    = 97.0708
RA_OF_ASC_NODE = 272.6481
ARG_OF_PERICENTER = 134.8691
MEAN_ANOMALY   = 225.8238

EPHEMERIS_TYPE = 0
CLASSIFICATION_TYPE = U
NORAD_CAT_ID   = 20323
ELEMENT_SET_NO = 999
REV_AT_EPOCH   = 89513
BSTAR          = .13091E-3
MEAN_MOTION_DOT = .496E-5
MEAN_MOTION_DDOT = 0

CCSDS_OMM_VERS = 2.0
CREATION_DATE  = 
ORIGINATOR     = 

OBJECT_NAME    = ARIANE 40 R/B
OBJECT_ID      = 1990-005H
CENTER_NAME    = EARTH
REF_FRAME      = TEME
TIME_SYSTEM    = UTC
MEAN_ELEMENT_THEORY = SGP/SGP4

EPOCH          = 2026-03-05T18:47:34.897920
MEAN_MOTION    = 14.39867547
ECCENTRICITY   = .0009605
INCLINATION    = 98.3092
RA_OF_ASC_NODE = 125.5608
ARG_OF_PERICENTER = 210.5753
MEAN_ANOMALY   = 149.4877

EPHEMERIS_TYPE = 0
CLASSIFICATION_TYPE = U
NORAD_CAT_ID   = 20443
ELEMENT_SET_NO = 999
REV_AT_EPOCH   = 89224
BSTAR          = .13441243E-3
MEAN_MOTION_DOT = .38E-5
MEAN_MOTION_DDOT = 0

